APRIZESAT 2             
1 28366U 04025A   26197.43884697  .00000083  00000+0  38768-4 0  9996
2 28366  98.1043   1.7670 0106017 161.1249 199.3916 14.38047980155847
SAUDICOMSAT 1           
1 28369U 04025D   26197.02689156  .00000131  00000+0  41482-4 0  9998
2 28369  98.5777 207.9374 0030976 296.2648  63.5367 14.55493893168328
SAUDICOMSAT 2           
1 28370U 04025E   26197.52184912  .00000086  00000+0  34422-4 0  9990
2 28370  98.6643 210.5976 0055710 169.6680 190.5672 14.49994768164352
APRIZESAT 1             
1 28372U 04025G   26197.31040991  .00000105  00000+0  37774-4 0  9992
2 28372  98.6310 208.8290 0045755  67.3683 293.2341 14.51792389166139
NANOSAT-1               
1 28493U 04049B   26197.37221891  .00000448  00000+0  66272-4 0  9993
2 28493  98.2311 334.7533 0003896 180.1961 179.9249 14.80211927159766
SAUDICOMSAT 7           
1 31119U 07012C   26197.45937246  .00000224  00000+0  49329-4 0  9998
2 31119  98.3799 172.1933 0057003 104.4210 256.3328 14.66137292 26722
SAUDICOMSAT 6           
1 31121U 07012E   26197.43944770  .00000154  00000+0  39551-4 0  9997
2 31121  98.4118 165.5040 0070567 235.1547 124.3004 14.62585067 24468
SAUDICOMSAT 5           
1 31124U 07012H   26197.45993960  .00000289  00000+0  58590-4 0  9990
2 31124  98.3512 172.9351 0048162  34.9387 325.4962 14.68193040 27897
SAUDICOMSAT 3           
1 31125U 07012J   26197.43766839  .00000336  00000+0  63353-4 0  9998
2 31125  98.3165 173.4588 0038194 321.2381  38.6085 14.70750734 29129
SAUDICOMSAT 4           
1 31127U 07012L   26197.46495291  .00000185  00000+0  43767-4 0  9993
2 31127  98.4004 170.6359 0063665 165.7739 194.5275 14.64535937 25575
APRIZESAT 4             
1 35684U 09041D   26197.18494482  .00000333  00000+0  46573-4 0  9992
2 35684  98.1404 273.0822 0042291 226.2484 133.5226 14.83914429915668
APRIZESAT 3             
1 35686U 09041F   26197.38933364  .00000676  00000+0  63592-4 0  9993
2 35686  98.2102 352.0190 0060760 331.9541  27.8409 14.96312768920746
S-NET D                 
1 43186U 18014G   26197.29068167  .00002472  00000+0  12879-3 0  9994
2 43186  97.5332 101.9008 0006197 280.1842  79.8692 15.16922878463171
S-NET B                 
1 43187U 18014H   26197.30270701  .00002313  00000+0  12085-3 0  9999
2 43187  97.5337 101.9001 0006805 273.9137  86.1318 15.16892600463178
S-NET A                 
1 43188U 18014J   26197.28939879  .00002460  00000+0  12816-3 0  9990
2 43188  97.5346 102.1015 0006694 275.0642  84.9827 15.16931083463177
S-NET C                 
1 43189U 18014K   26197.30673957  .00002237  00000+0  11698-3 0  9995
2 43189  97.5365 102.1976 0008049 265.5764  94.4549 15.16883754461727
SALSAT                  
1 46495U 20068K   26197.24901140  .00003822  00000+0  13369-3 0  9999
2 46495  97.8856 202.0925 0009321 188.9749 171.1325 15.30180346319806
OOV-CUBE (TUBSAT-30)    
1 60240U 24128F   26197.53120245  .00000944  00000+0  84626-4 0  9992
2 60240  61.9939 123.2433 0040943 140.3157 220.0943 15.02876977110521
LPNTSAT-001 (IOD-1)     
1 68408U 26065A   26197.20089919  .00001303  00000+0  65981-4 0  9997
2 68408  97.3979  77.0934 0014623 262.5127  97.4446 15.18671614 16666
CHUANG XIN 26 (CX-26)   
1 69972U 26158A   26194.51442212 -.00000212  00000+0 -21871-4 0  9997
2 69972  49.9860 287.5119 0004887 294.2352  65.8050 14.25122238   462
